{
  "type": "FeatureCollection",
  "features": [
    {
      "type": "Feature",
      "properties": {
        "norad_id": 34492,
        "name": "IRIDIUM 33 DEB",
        "group": "iridium-33-debris",
        "lat": -3.7984603109266417,
        "lon": 158.33354272009714,
        "alt_km": 790.2664138707669,
        "timestamp": "2025-12-04T03:47:54.927394+00:00",
        "meta_object_name": "IRIDIUM 33 DEB",
        "meta_object_id": "1997-051GH",
        "meta_epoch": "2025-12-03T10:48:32.343840",
        "meta_mean_motion": 14.25280236,
        "meta_eccentricity": 0.0190283,
        "meta_inclination": 86.4711,
        "meta_ra_of_asc_node": 338.3846,
        "meta_arg_of_pericenter": 268.3385,
        "meta_mean_anomaly": 247.4972,
        "meta_ephemeris_type": 0,
        "meta_classification_type": "U",
        "meta_norad_cat_id": 34492,
        "meta_element_set_no": 999,
        "meta_rev_at_epoch": 84926,
        "meta_bstar": 0.0085812,
        "meta_mean_motion_dot": 0.00024475,
        "meta_mean_motion_ddot": 0,
        "tle_line1": "1 34492U 97051GH  25337.45037435  .00024475  00000+0  85812-2 0  9992",
        "tle_line2": "2 34492  86.4711 338.3846 0190283 268.3385 247.4972 14.25280236849261"
      },
      "geometry": {
        "type": "Point",
        "coordinates": [
          158.33354272009714,
          -3.7984603109266417
        ]
      }
    },
    {
      "type": "Feature",
      "properties": {
        "norad_id": 34497,
        "name": "IRIDIUM 33 DEB",
        "group": "iridium-33-debris",
        "lat": 5.793685453015722,
        "lon": 56.445407983236926,
        "alt_km": 745.3331000376338,
        "timestamp": "2025-12-04T03:47:54.927404+00:00",
        "meta_object_name": "IRIDIUM 33 DEB",
        "meta_object_id": "1997-051GN",
        "meta_epoch": "2025-12-03T06:10:51.201984",
        "meta_mean_motion": 14.27408211,
        "meta_eccentricity": 0.0079856,
        "meta_inclination": 86.2784,
        "meta_ra_of_asc_node": 56.4516,
        "meta_arg_of_pericenter": 10.3771,
        "meta_mean_anomaly": 49.8757,
        "meta_ephemeris_type": 0,
        "meta_classification_type": "U",
        "meta_norad_cat_id": 34497,
        "meta_element_set_no": 999,
        "meta_rev_at_epoch": 86748,
        "meta_bstar": 0.00083815,
        "meta_mean_motion_dot": 2.144e-05,
        "meta_mean_motion_ddot": 0,
        "tle_line1": "1 34497U 97051GN  25337.25753706  .00002144  00000+0  83815-3 0  9992",
        "tle_line2": "2 34497  86.2784  56.4516 0079856  10.3771  49.8757 14.27408211867488"
      },
      "geometry": {
        "type": "Point",
        "coordinates": [
          56.445407983236926,
          5.793685453015722
        ]
      }
    },
    {
      "type": "Feature",
      "properties": {
        "norad_id": 34508,
        "name": "IRIDIUM 33 DEB",
        "group": "iridium-33-debris",
        "lat": -6.708643905322678,
        "lon": -73.29202246936124,
        "alt_km": 722.6734210865743,
        "timestamp": "2025-12-04T03:47:54.927414+00:00",
        "meta_object_name": "IRIDIUM 33 DEB",
        "meta_object_id": "1997-051GZ",
        "meta_epoch": "2025-12-03T18:34:58.617984",
        "meta_mean_motion": 14.38282153,
        "meta_eccentricity": 0.0065497,
        "meta_inclination": 86.3699,
        "meta_ra_of_asc_node": 106.4429,
        "meta_arg_of_pericenter": 202.0722,
        "meta_mean_anomaly": 157.7654,
        "meta_ephemeris_type": 0,
        "meta_classification_type": "U",
        "meta_norad_cat_id": 34508,
        "meta_element_set_no": 999,
        "meta_rev_at_epoch": 87180,
        "meta_bstar": 0.0026331,
        "meta_mean_motion_dot": 8.231e-05,
        "meta_mean_motion_ddot": 0,
        "tle_line1": "1 34508U 97051GZ  25337.77428956  .00008231  00000+0  26331-2 0  9990",
        "tle_line2": "2 34508  86.3699 106.4429 0065497 202.0722 157.7654 14.38282153871801"
      },
      "geometry": {
        "type": "Point",
        "coordinates": [
          -73.29202246936124,
          -6.708643905322678
        ]
      }
    },
    {
      "type": "Feature",
      "properties": {
        "norad_id": 34521,
        "name": "IRIDIUM 33 DEB",
        "group": "iridium-33-debris",
        "lat": -44.813823161470076,
        "lon": 30.72082070557111,
        "alt_km": 688.8502886424685,
        "timestamp": "2025-12-04T03:47:54.927424+00:00",
        "meta_object_name": "IRIDIUM 33 DEB",
        "meta_object_id": "1997-051HN",
        "meta_epoch": "2025-12-03T14:52:24.138048",
        "meta_mean_motion": 14.63228778,
        "meta_eccentricity": 0.0001118,
        "meta_inclination": 86.3812,
        "meta_ra_of_asc_node": 34.5626,
        "meta_arg_of_pericenter": 291.1888,
        "meta_mean_anomaly": 68.9204,
        "meta_ephemeris_type": 0,
        "meta_classification_type": "U",
        "meta_norad_cat_id": 34521,
        "meta_element_set_no": 999,
        "meta_rev_at_epoch": 88339,
        "meta_bstar": 0.0014436,
        "meta_mean_motion_dot": 7.457e-05,
        "meta_mean_motion_ddot": 0,
        "tle_line1": "1 34521U 97051HN  25337.61972382  .00007457  00000+0  14436-2 0  9997",
        "tle_line2": "2 34521  86.3812  34.5626 0001118 291.1888  68.9204 14.63228778883397"
      },
      "geometry": {
        "type": "Point",
        "coordinates": [
          30.72082070557111,
          -44.813823161470076
        ]
      }
    },
    {
      "type": "Feature",
      "properties": {
        "norad_id": 34525,
        "name": "IRIDIUM 33 DEB",
        "group": "iridium-33-debris",
        "lat": 43.78516326734109,
        "lon": 53.99093253576488,
        "alt_km": 743.877041533703,
        "timestamp": "2025-12-04T03:47:54.927434+00:00",
        "meta_object_name": "IRIDIUM 33 DEB",
        "meta_object_id": "1997-051HS",
        "meta_epoch": "2025-12-03T11:01:10.915104",
        "meta_mean_motion": 14.42867248,
        "meta_eccentricity": 0.0006435,
        "meta_inclination": 86.3737,
        "meta_ra_of_asc_node": 50.8044,
        "meta_arg_of_pericenter": 116.3826,
        "meta_mean_anomaly": 258.5151,
        "meta_ephemeris_type": 0,
        "meta_classification_type": "U",
        "meta_norad_cat_id": 34525,
        "meta_element_set_no": 999,
        "meta_rev_at_epoch": 87954,
        "meta_bstar": 0.0005736,
        "meta_mean_motion_dot": 1.934e-05,
        "meta_mean_motion_ddot": 0,
        "tle_line1": "1 34525U 97051HS  25337.45915411  .00001934  00000+0  57360-3 0  9991",
        "tle_line2": "2 34525  86.3737  50.8044 0006435 116.3826 258.5151 14.42867248879547"
      },
      "geometry": {
        "type": "Point",
        "coordinates": [
          53.99093253576488,
          43.78516326734109
        ]
      }
    },
    {
      "type": "Feature",
      "properties": {
        "norad_id": 34529,
        "name": "IRIDIUM 33 DEB",
        "group": "iridium-33-debris",
        "lat": 9.011889435333659,
        "lon": 39.647338639389915,
        "alt_km": 760.7823557582933,
        "timestamp": "2025-12-04T03:47:54.927457+00:00",
        "meta_object_name": "IRIDIUM 33 DEB",
        "meta_object_id": "1997-051HW",
        "meta_epoch": "2025-12-03T04:25:06.115584",
        "meta_mean_motion": 14.40603135,
        "meta_eccentricity": 0.00036637,
        "meta_inclination": 86.3649,
        "meta_ra_of_asc_node": 39.4847,
        "meta_arg_of_pericenter": 211.6368,
        "meta_mean_anomaly": 148.4612,
        "meta_ephemeris_type": 0,
        "meta_classification_type": "U",
        "meta_norad_cat_id": 34529,
        "meta_element_set_no": 999,
        "meta_rev_at_epoch": 88004,
        "meta_bstar": 0.00016704296,
        "meta_mean_motion_dot": 5.52e-06,
        "meta_mean_motion_ddot": 0,
        "tle_line1": "1 34529U 97051HW  25337.18409856  .00000552  00000+0  16704-3 0  9998",
        "tle_line2": "2 34529  86.3649  39.4847 0003663 211.6368 148.4612 14.40603135880044"
      },
      "geometry": {
        "type": "Point",
        "coordinates": [
          39.647338639389915,
          9.011889435333659
        ]
      }
    },
    {
      "type": "Feature",
      "properties": {
        "norad_id": 34538,
        "name": "IRIDIUM 33 DEB",
        "group": "iridium-33-debris",
        "lat": 35.07132100540236,
        "lon": -173.3041778882522,
        "alt_km": 768.2693217173864,
        "timestamp": "2025-12-04T03:47:54.927470+00:00",
        "meta_object_name": "IRIDIUM 33 DEB",
        "meta_object_id": "1997-051JF",
        "meta_epoch": "2025-12-03T09:06:24.180192",
        "meta_mean_motion": 14.42557361,
        "meta_eccentricity": 0.0033974,
        "meta_inclination": 86.2784,
        "meta_ra_of_asc_node": 9.6557,
        "meta_arg_of_pericenter": 359.4688,
        "meta_mean_anomaly": 63.0233,
        "meta_ephemeris_type": 0,
        "meta_classification_type": "U",
        "meta_norad_cat_id": 34538,
        "meta_element_set_no": 999,
        "meta_rev_at_epoch": 87621,
        "meta_bstar": 0.0012709,
        "meta_mean_motion_dot": 4.264e-05,
        "meta_mean_motion_ddot": 0,
        "tle_line1": "1 34538U 97051JF  25337.37944653  .00004264  00000+0  12709-2 0  9992",
        "tle_line2": "2 34538  86.2784   9.6557 0033974 359.4688  63.0233 14.42557361876210"
      },
      "geometry": {
        "type": "Point",
        "coordinates": [
          -173.3041778882522,
          35.07132100540236
        ]
      }
    }
  ]
}